#aV2024  5 29  0  0  0.00000000     288 DD+AD WGS84 FIT  NGA
## 2316 259200.00000000   300.00000000 60459 0.0000000000000
+   31     2  3  4  5  6  7  8  9 10 11 12 13 14 15 16 17 18
+         19 20 21 22 23 24 25 26 27 28 29 30 31 32  0  0  0
+          0  0  0  0  0  0  0  0  0  0  0  0  0  0  0  0  0
+          0  0  0  0  0  0  0  0  0  0  0  0  0  0  0  0  0
+          0  0  0  0  0  0  0  0  0  0  0  0  0  0  0  0  0
++         2  2  2  2  2  2  2  2  2  2  2  2  2  2  2  2  2
++         2  2  2  2  2  2  2  2  2  2  2  2  2  2  0  0  0
++         0  0  0  0  0  0  0  0  0  0  0  0  0  0  0  0  0
++         0  0  0  0  0  0  0  0  0  0  0  0  0  0  0  0  0
++         0  0  0  0  0  0  0  0  0  0  0  0  0  0  0  0  0
%c cc cc ccc ccc cccc cccc cccc cccc ccccc ccccc ccccc ccccc
%c cc cc ccc ccc cccc cccc cccc cccc ccccc ccccc ccccc ccccc
%f  0.0000000  0.000000000  0.00000000000  0.000000000000000
%f  0.0000000  0.000000000  0.00000000000  0.000000000000000
%i    0    0    0    0      0      0      0      0         0
%i    0    0    0    0      0      0      0      0         0
/*      NGA, ST. LOUIS,MO.                                  
/*   EPHEMERIS COMPUTED FROM 2 DAYS OF DATA                 
/*   EPOCHA v9 SMOOTHER                                     
/*   G2296 IERS2010 SATIGS SATAPC                           
*  2024  5 29  9 55  0.00000000
P  2  11728.164989 -20559.012714 -11272.578211   -427.594471                    
V  2  13103.983571  -8013.867417  27395.643585      0.068962                    
P  3   -559.444135 -15846.951573 -21486.095197    387.487580                    
V  3  24707.743243  10446.916111  -8290.439818      0.186242                    
P  4   1708.491397 -25896.668109  -5286.113898    371.592295                    
V  4   3232.820323   6531.603065 -30978.442403      0.082696                    
P  5 -15402.718978   8531.827324  19731.990022   -174.416139                    
V  5 -23337.020746 -10062.540529 -13655.212572     -0.013504                    
P  6 -20646.867978   1279.635247 -16662.132119    247.948094                    
V  6  16534.299448 -13270.598303 -21322.914371     -0.203434                    
P  7  -7039.775168 -14179.981907  21808.197256   -110.639796                    
V  7  21710.314073 -15311.367960  -3485.878516      0.160158                    
P  8   7525.581016 -20535.891566  14654.736687    203.175777                    
V  8   5273.607636  18423.286583  23357.230978      0.192878                    
P  9  -7972.172648 -24420.884489   6556.675692    214.281035                    
V  9   1655.354492  -8748.977234 -30254.070207      0.143257                    
P 10  24455.210017  10811.238489     79.380600    -31.877783                    
V 10   -583.295865   1703.831069  32053.892913     -0.073369                    
P 11 -23457.226973  11213.140233  -5269.077506   -673.511811                    
V 11   4149.885679  -5905.335659 -30964.224712     -0.087398                    
P 12  -2757.843313  15555.733895 -21639.405520   -509.507313                    
V 12 -23949.628934 -12037.460276  -5624.875199     -0.032643                    
P 13 -13206.182933  12996.853811  18730.997216    654.081945                    
V 13   -705.690347 -24307.161754  16417.482623      0.027990                    
P 14 -22830.163955 -13382.931661   3393.030938    412.430049                    
V 14   5147.063701   -973.263882  30897.624046      0.092187                    
P 15  -4899.875721  21589.786676  14033.764970    164.245910                    
V 15  -7780.400056 -17387.503730  23407.383434      0.041547                    
P 16  18822.373089  -4120.108574  18138.339973   -278.938722                    
V 16  20017.174085  12483.505258 -17174.765833      0.102132                    
P 17 -12631.173124 -15184.666291 -17262.134277    701.549823                    
V 17    621.627363 -22846.424124  19337.044922     -0.043680                    
P 18   7018.001760  13259.596221  21917.663156   -617.618780                    
V 18 -22830.494347  15819.185149  -2454.015728     -0.053782                    
P 19 -14812.584415  -5908.483197 -21477.675103    488.808691                    
V 19    218.712008 -26766.355451   6887.583857      0.053686                    
P 20 -22904.008221   3824.905854  12820.524540    374.853828                    
V 20 -15204.715270  -6274.026694 -25556.408435     -0.013723                    
P 21  15370.952227 -19785.082998  -6613.024262    118.765062                    
V 21   9281.197911  -3428.069155  30874.739498     -0.022947                    
P 22 -24066.163358  -9718.851438  -4430.745438    -20.167953                    
V 22  -3962.809111  -5651.939837  31289.743889     -0.051230                    
P 23  18427.558927  15636.420675  11266.944868    237.232717                    
V 23 -13794.812383  -3696.067001  27554.329343      0.093018                    
P 24 -12202.409574  21171.000158 -10303.600668   -473.721384                    
V 24 -11739.245394   5892.768036  27528.515780     -0.030531                    
P 25   8215.748675  17713.891509 -18457.664425    496.526659                    
V 25 -21495.041829  -7410.291345 -16733.891059      0.006180                    
P 26  25527.068100   3177.557776   7184.074612    145.589797                    
V 26   7695.574612   6105.047211 -29054.574748     -0.059221                    
P 27  13201.741290  -9807.168781  20473.748198    -26.124264                    
V 27   4277.082512  26436.706206  10181.891776     -0.015939                    
P 28  19494.904024    693.167056 -18034.788937   -264.865030                    
V 28 -17008.792141  15384.301992 -17806.133308     -0.167913                    
P 29   3785.560139  25875.227797   4213.322003   -596.524307                    
V 29  -2354.837406   5513.626307 -31465.746843      0.015943                    
P 30 -16733.500946  -5989.458492  19959.025035   -382.885806                    
V 30  19495.241445 -15761.510581  11432.811985      0.060316                    
P 31  23615.584509  -7944.454585  -9960.029829   -227.653880                    
V 31  -8657.792656   8944.238194 -27883.899785      0.001556                    
P 32  14431.152422  12395.268743 -18404.119266   -617.562340                    
V 32   1443.783574  23734.269235  16726.199735      0.007320                    
EOF
